{
  "type": "FeatureCollection",
  "features": [
    {
      "type": "Feature",
      "properties": {
        "norad_id": 36036,
        "name": "SMOS",
        "group": "resource",
        "lat": 21.7028034391342,
        "lon": -10.691394286478289,
        "alt_km": 758.9274497488923,
        "timestamp": "2025-12-06T18:50:09.827582+00:00",
        "meta_object_name": "SMOS",
        "meta_object_id": "2009-059A",
        "meta_epoch": "2025-12-06T06:25:45.772896",
        "meta_mean_motion": 14.39732741,
        "meta_eccentricity": 0.0001133,
        "meta_inclination": 98.4387,
        "meta_ra_of_asc_node": 165.4122,
        "meta_arg_of_pericenter": 84.8118,
        "meta_mean_anomaly": 275.3199,
        "meta_ephemeris_type": 0,
        "meta_classification_type": "U",
        "meta_norad_cat_id": 36036,
        "meta_element_set_no": 999,
        "meta_rev_at_epoch": 84569,
        "meta_bstar": 0.00026315864,
        "meta_mean_motion_dot": 7.81e-06,
        "meta_mean_motion_ddot": 0,
        "tle_line1": "1 36036U 09059A   25340.26789089  .00000781  00000+0  26316-3 0  9990",
        "tle_line2": "2 36036  98.4387 165.4122 0001133  84.8118 275.3199 14.39732741845697"
      },
      "geometry": {
        "type": "Point",
        "coordinates": [
          -10.691394286478289,
          21.7028034391342
        ]
      }
    },
    {
      "type": "Feature",
      "properties": {
        "norad_id": 36110,
        "name": "YAOGAN-7",
        "group": "resource",
        "lat": -68.1938411160989,
        "lon": 21.90112539999723,
        "alt_km": 633.5561035870314,
        "timestamp": "2025-12-06T18:50:09.827592+00:00",
        "meta_object_name": "YAOGAN-7",
        "meta_object_id": "2009-069A",
        "meta_epoch": "2025-12-06T04:42:24.992640",
        "meta_mean_motion": 14.77717715,
        "meta_eccentricity": 0.00236456,
        "meta_inclination": 98.0302,
        "meta_ra_of_asc_node": 221.9763,
        "meta_arg_of_pericenter": 303.5107,
        "meta_mean_anomaly": 56.3844,
        "meta_ephemeris_type": 0,
        "meta_classification_type": "U",
        "meta_norad_cat_id": 36110,
        "meta_element_set_no": 999,
        "meta_rev_at_epoch": 86112,
        "meta_bstar": 0.00020199342,
        "meta_mean_motion_dot": 1.401e-05,
        "meta_mean_motion_ddot": 0,
        "tle_line1": "1 36110U 09069A   25340.19612260  .00001401  00000+0  20199-3 0  9995",
        "tle_line2": "2 36110  98.0302 221.9763 0023645 303.5107  56.3844 14.77717715861129"
      },
      "geometry": {
        "type": "Point",
        "coordinates": [
          21.90112539999723,
          -68.1938411160989
        ]
      }
    },
    {
      "type": "Feature",
      "properties": {
        "norad_id": 36605,
        "name": "TANDEM-X",
        "group": "resource",
        "lat": -30.765732214175717,
        "lon": -9.282258104735263,
        "alt_km": 515.1870783319946,
        "timestamp": "2025-12-06T18:50:09.827603+00:00",
        "meta_object_name": "TANDEM-X",
        "meta_object_id": "2010-030A",
        "meta_epoch": "2025-12-05T14:31:03.216576",
        "meta_mean_motion": 15.19154888,
        "meta_eccentricity": 0.0001924,
        "meta_inclination": 97.4449,
        "meta_ra_of_asc_node": 345.0902,
        "meta_arg_of_pericenter": 96.7979,
        "meta_mean_anomaly": 263.3475,
        "meta_ephemeris_type": 0,
        "meta_classification_type": "U",
        "meta_norad_cat_id": 36605,
        "meta_element_set_no": 999,
        "meta_rev_at_epoch": 85725,
        "meta_bstar": 0.00014316692,
        "meta_mean_motion_dot": 2.941e-05,
        "meta_mean_motion_ddot": 0,
        "tle_line1": "1 36605U 10030A   25339.60489834  .00002941  00000+0  14317-3 0  9992",
        "tle_line2": "2 36605  97.4449 345.0902 0001924  96.7979 263.3475 15.19154888857252"
      },
      "geometry": {
        "type": "Point",
        "coordinates": [
          -9.282258104735263,
          -30.765732214175717
        ]
      }
    },
    {
      "type": "Feature",
      "properties": {
        "norad_id": 36795,
        "name": "CARTOSAT-2B",
        "group": "resource",
        "lat": 24.468695150897112,
        "lon": -146.42154607127122,
        "alt_km": 628.0690477623903,
        "timestamp": "2025-12-06T18:50:09.827613+00:00",
        "meta_object_name": "CARTOSAT-2B",
        "meta_object_id": "2010-035A",
        "meta_epoch": "2025-12-06T06:46:12.493920",
        "meta_mean_motion": 14.78774622,
        "meta_eccentricity": 0.00129072,
        "meta_inclination": 97.7861,
        "meta_ra_of_asc_node": 29.5221,
        "meta_arg_of_pericenter": 96.6159,
        "meta_mean_anomaly": 263.6523,
        "meta_ephemeris_type": 0,
        "meta_classification_type": "U",
        "meta_norad_cat_id": 36795,
        "meta_element_set_no": 999,
        "meta_rev_at_epoch": 83134,
        "meta_bstar": 0.00021929947,
        "meta_mean_motion_dot": 1.563e-05,
        "meta_mean_motion_ddot": 0,
        "tle_line1": "1 36795U 10035A   25340.28208905  .00001563  00000+0  21930-3 0  9999",
        "tle_line2": "2 36795  97.7861  29.5221 0012907  96.6159 263.6523 14.78774622831340"
      },
      "geometry": {
        "type": "Point",
        "coordinates": [
          -146.42154607127122,
          24.468695150897112
        ]
      }
    },
    {
      "type": "Feature",
      "properties": {
        "norad_id": 36834,
        "name": "YAOGAN-10",
        "group": "resource",
        "lat": 68.00653477708832,
        "lon": -159.2035218705282,
        "alt_km": 607.3848563346046,
        "timestamp": "2025-12-06T18:50:09.827623+00:00",
        "meta_object_name": "YAOGAN-10",
        "meta_object_id": "2010-038A",
        "meta_epoch": "2025-12-06T05:41:50.280864",
        "meta_mean_motion": 14.84570152,
        "meta_eccentricity": 0.00014958,
        "meta_inclination": 97.9142,
        "meta_ra_of_asc_node": 0.1069,
        "meta_arg_of_pericenter": 84.564,
        "meta_mean_anomaly": 341.9462,
        "meta_ephemeris_type": 0,
        "meta_classification_type": "U",
        "meta_norad_cat_id": 36834,
        "meta_element_set_no": 999,
        "meta_rev_at_epoch": 82857,
        "meta_bstar": 0.00042319737,
        "meta_mean_motion_dot": 3.519e-05,
        "meta_mean_motion_ddot": 0,
        "tle_line1": "1 36834U 10038A   25340.23738751  .00003519  00000+0  42320-3 0  9997",
        "tle_line2": "2 36834  97.9142   0.1069 0001495  84.5640 341.9462 14.84570152828576"
      },
      "geometry": {
        "type": "Point",
        "coordinates": [
          -159.2035218705282,
          68.00653477708832
        ]
      }
    },
    {
      "type": "Feature",
      "properties": {
        "norad_id": 37216,
        "name": "COSMO-SKYMED 4",
        "group": "resource",
        "lat": 81.0132469176858,
        "lon": 101.04404102882678,
        "alt_km": 614.1369962502431,
        "timestamp": "2025-12-06T18:50:09.827634+00:00",
        "meta_object_name": "COSMO-SKYMED 4",
        "meta_object_id": "2010-060A",
        "meta_epoch": "2025-12-06T05:29:20.523264",
        "meta_mean_motion": 14.82156569,
        "meta_eccentricity": 0.0001368,
        "meta_inclination": 97.8814,
        "meta_ra_of_asc_node": 161.6501,
        "meta_arg_of_pericenter": 82.9931,
        "meta_mean_anomaly": 277.1438,
        "meta_ephemeris_type": 0,
        "meta_classification_type": "U",
        "meta_norad_cat_id": 37216,
        "meta_element_set_no": 999,
        "meta_rev_at_epoch": 81598,
        "meta_bstar": 0.00015237852,
        "meta_mean_motion_dot": 1.161e-05,
        "meta_mean_motion_ddot": 0,
        "tle_line1": "1 37216U 10060A   25340.22870976  .00001161  00000+0  15238-3 0  9991",
        "tle_line2": "2 37216  97.8814 161.6501 0001368  82.9931 277.1438 14.82156569815988"
      },
      "geometry": {
        "type": "Point",
        "coordinates": [
          101.04404102882678,
          81.0132469176858
        ]
      }
    },
    {
      "type": "Feature",
      "properties": {
        "norad_id": 37387,
        "name": "RESOURCESAT-2",
        "group": "resource",
        "lat": -80.64079021916521,
        "lon": 154.5401364751715,
        "alt_km": 831.5071088373315,
        "timestamp": "2025-12-06T18:50:09.827645+00:00",
        "meta_object_name": "RESOURCESAT-2",
        "meta_object_id": "2011-015A",
        "meta_epoch": "2025-12-06T05:45:38.140128",
        "meta_mean_motion": 14.21593419,
        "meta_eccentricity": 0.00066906,
        "meta_inclination": 98.7886,
        "meta_ra_of_asc_node": 43.8209,
        "meta_arg_of_pericenter": 59.3985,
        "meta_mean_anomaly": 300.7851,
        "meta_ephemeris_type": 0,
        "meta_classification_type": "U",
        "meta_norad_cat_id": 37387,
        "meta_element_set_no": 999,
        "meta_rev_at_epoch": 75876,
        "meta_bstar": 0.00017951342,
        "meta_mean_motion_dot": 3.49e-06,
        "meta_mean_motion_ddot": 0,
        "tle_line1": "1 37387U 11015A   25340.24002477  .00000349  00000+0  17951-3 0  9997",
        "tle_line2": "2 37387  98.7886  43.8209 0006690  59.3985 300.7851 14.21593419758768"
      },
      "geometry": {
        "type": "Point",
        "coordinates": [
          154.5401364751715,
          -80.64079021916521
        ]
      }
    }
  ]
}